[Satellite]
VERSION=1.1
NAME=SL-3 R/B
NICKNAME=SL-3 R/B
TLE1=1 13154U 82039B   20157.71608219  .00000115  00000-0  76264-5 0  9992
TLE2=2 13154  81.1844  85.5999 0040182   1.4322 358.7005 14.98738895 66163
STATUS=0
